{
  "type": "FeatureCollection", 
  "features": [
    {
      "type": "Feature",
      "geometry": {
        "type": "Polygon",
        "coordinates": [
          [
            [106.721344, -6.089998],
            [106.741844, -6.105995],
            [106.857552, -6.117222],
            [106.877823, -6.09872],
            [106.972267, -6.089283],
            [106.972893, -6.185318],
            [106.945602, -6.25469],
            [106.909164, -6.263964],
            [106.922569, -6.318879],
            [106.9132, -6.366885],
            [106.775894, -6.316725],
            [106.718864, -6.185875],
            [106.688759, -6.174209],
            [106.692719, -6.095602],
            [106.721344, -6.089998]
          ]
        ]
      },
      "properties": {
        "name": "DKI Jakarta",
        "code": "31",
        "type": "provinsi"
      }
    },
    {
      "type": "Feature", 
      "geometry": {
        "type": "Polygon",
        "coordinates": [
          [
            [106.396103, -6.979798],
            [106.441109, -6.952632],
            [106.543465, -6.982475],
            [106.539734, -7.056473],
            [106.456253, -7.127603],
            [106.455795, -7.184799],
            [106.398254, -7.188931],
            [106.376572, -7.237391],
            [106.370895, -7.310125],
            [106.421753, -7.357368],
            [106.473618, -7.371199],
            [106.519707, -7.405331],
            [106.788452, -7.434358],
            [106.857651, -7.432205],
            [107.077705, -7.451569],
            [107.242142, -7.487233],
            [107.35405, -7.498446],
            [107.39267, -7.492356],
            [107.602493, -7.571478],
            [107.673851, -7.627574],
            [107.679466, -7.660038],
            [107.782387, -7.677471],
            [107.839561, -7.7341],
            [107.928497, -7.730316],
            [108.123146, -7.780538],
            [108.261208, -7.806957],
            [108.430328, -7.822663],
            [108.48156, -7.801749],
            [108.505714, -7.760839],
            [108.513016, -7.699345],
            [108.586388, -7.684473],
            [108.657326, -7.69776],
            [108.715416, -7.6797],
            [108.76519, -7.696947],
            [108.804252, -7.673145],
            [108.738433, -7.609161],
            [108.753132, -7.543514],
            [108.724345, -7.486524],
            [108.714968, -7.421927],
            [108.738433, -7.609161],
            [108.804252, -7.673145],
            [108.827862, -7.599123],
            [108.865476, -7.611036],
            [108.876058, -7.694295],
            [108.896909, -7.70961],
            [108.919786, -7.706645],
            [108.93102, -7.713349],
            [108.933997, -7.720566],
            [108.96375, -7.715322],
            [108.993577, -7.744561],
            [109.048995, -7.697629],
            [109.105467, -7.685618],
            [109.277812, -7.701472],
            [109.380403, -7.724499],
            [109.424683, -7.76845],
            [109.47419, -7.756908],
            [109.690193, -7.792683],
            [109.896675, -7.844425],
            [110.011826, -7.886903],
            [110.042953, -7.89204],
            [110.06321, -7.813906],
            [110.132286, -7.741732],
            [110.142883, -7.645877],
            [110.25954, -7.645667],
            [110.254532, -7.683113],
            [110.379147, -7.595244],
            [110.444958, -7.536631],
            [110.498291, -7.745311],
            [110.54336, -7.798195],
            [110.588886, -7.804361],
            [110.657083, -7.785867],
            [110.723794, -7.791503],
            [110.750929, -7.82466],
            [110.786538, -7.818944],
            [110.771225, -7.899249],
            [110.758797, -8.030742],
            [110.790009, -8.1165],
            [110.788666, -8.154592],
            [110.836136, -8.202934],
            [110.904457, -8.210409],
            [110.911171, -8.121149],
            [110.956131, -8.063713],
            [111.031685, -8.082599],
            [111.072105, -8.050748],
            [111.108658, -8.065952],
            [111.134033, -8.020032],
            [111.140442, -7.938492],
            [111.181503, -7.916514],
            [111.231346, -7.948041],
            [111.269707, -7.930492],
            [111.314003, -7.85079],
            [111.281219, -7.782755],
            [111.283073, -7.744789],
            [111.230736, -7.747669],
            [111.180164, -7.709611],
            [111.189209, -7.603958],
            [111.151654, -7.563807],
            [111.112659, -7.415796],
            [111.132803, -7.386832],
            [111.133153, -7.30824],
            [111.146592, -7.262771],
            [111.241771, -7.24923],
            [111.219641, -7.295056],
            [111.346387, -7.352231],
            [111.438232, -7.353508],
            [111.448722, -7.280662],
            [111.544593, -7.209885],
            [111.580716, -7.201196],
            [111.62486, -7.065532],
            [111.612236, -6.971057],
            [111.566604, -6.951681],
            [111.609039, -6.903624],
            [111.615326, -6.836943],
            [111.648499, -6.828923],
            [111.659874, -6.780993],
            [109.574196, -6.837207],
            [109.525772, -6.783483],
            [109.444908, -6.835716],
            [109.375954, -6.859314],
            [109.284729, -6.873732],
            [109.116945, -6.849453],
            [109.027512, -6.774646],
            [108.952652, -6.83733],
            [108.854889, -6.799195],
            [108.829338, -6.74608],
            [108.738433, -7.609161],
            [108.804252, -7.673145],
            [108.867862, -7.599123],
            [108.865476, -7.611036],
            [108.876058, -7.694295],
            [108.896909, -7.70961],
            [108.919786, -7.706645],
            [108.93102, -7.713349],
            [108.933997, -7.720566],
            [108.96375, -7.715322],
            [108.993577, -7.744561],
            [109.048995, -7.697629],
            [109.105467, -7.685618],
            [109.277812, -7.701472],
            [109.380403, -7.724499],
            [109.424683, -7.76845],
            [109.47419, -7.756908],
            [109.690193, -7.792683],
            [109.896675, -7.844425],
            [110.011826, -7.886903],
            [110.217957, -7.985723],
            [110.345947, -8.028257],
            [110.37883, -8.066612],
            [110.438988, -8.095153],
            [110.584984, -8.139478],
            [110.677467, -8.182687],
            [110.836136, -8.202934],
            [110.788666, -8.154592],
            [110.790009, -8.1165],
            [110.758797, -8.030742],
            [110.771225, -7.899249],
            [110.786538, -7.818944],
            [110.750929, -7.82466],
            [110.723794, -7.791503],
            [110.657083, -7.785867],
            [110.588886, -7.804361],
            [110.54336, -7.798195],
            [110.498291, -7.745311],
            [110.444958, -7.536631],
            [110.379147, -7.595244],
            [110.254532, -7.683113],
            [110.25954, -7.645667],
            [110.142883, -7.645877],
            [110.132286, -7.741732],
            [110.06321, -7.813906],
            [110.042953, -7.89204],
            [110.011826, -7.886903],
            [109.896675, -7.844425],
            [109.690193, -7.792683],
            [109.47419, -7.756908],
            [109.424683, -7.76845],
            [109.380403, -7.724499],
            [109.277812, -7.701472],
            [109.105467, -7.685618],
            [109.048995, -7.697629],
            [108.993577, -7.744561],
            [108.96375, -7.715322],
            [108.933997, -7.720566],
            [108.93102, -7.713349],
            [108.919786, -7.706645],
            [108.896909, -7.70961],
            [108.876058, -7.694295],
            [108.865476, -7.611036],
            [108.827862, -7.599123],
            [108.804252, -7.673145],
            [108.738433, -7.609161],
            [106.396103, -6.979798]
          ]
        ]
      },
      "properties": {
        "name": "Jawa Barat",
        "code": "32", 
        "type": "provinsi"
      }
    }
  ]
}
